STARLINK-5633           
1 55410U 23014V   26068.47159436 -.00000130  00000+0 -30742-5 0  9992
2 55410  69.9989  84.8422 0003524 267.6974  92.3782 14.98332032171533
HAWK-10A                
1 60540U 24149CA  26068.79979252  .00002135  00000+0  19454-3 0  9993
2 60540  97.6943 146.4192 0004333  57.1994 302.9645 14.96174213 85123
